[
    {
        "Altitude(m)": 604969.0891403087,
        "Argument of Periapsis(deg)": 0.0,
        "Eccentricity": 0.0,
        "Inclination(deg)": 60.0,
        "Latitude(deg)": -0.09266402282999364,
        "Longitude(deg)": -160.0224725425039,
        "Mean Anomaly(deg)": 0.0,
        "RAAN(deg)": 300.0,
        "Satellite Name": "Test1 1320",
        "Satellite Number": 1320,
        "Semi-Major Axis(m)": 6980739.136638005,
        "Time(s)": 0
    },
    {
        "Altitude(m)": 604900.0286110974,
        "Argument of Periapsis(deg)": 0.00010418945913296404,
        "Eccentricity": 0.0,
        "Inclination(deg)": 60.0,
        "Latitude(deg)": 0.44776144053528366,
        "Longitude(deg)": -159.75434865339312,
        "Mean Anomaly(deg)": 0.620106145461853,
        "RAAN(deg)": 299.99957995086027,
        "Satellite Name": "Test1 1320",
        "Satellite Number": 1320,
        "Semi-Major Axis(m)": 6980739.136638005,
        "Time(s)": 10
    }
]